[{"OBJECT_NAME":"GLOBALSTAR M073","OBJECT_ID":"2010-054F","EPOCH":"2026-03-09T23:43:39.055872","MEAN_MOTION":12.62269826,"ECCENTRICITY":5.635e-5,"INCLINATION":52.0093,"RA_OF_ASC_NODE":6.2531,"ARG_OF_PERICENTER":96.9542,"MEAN_ANOMALY":341.8173,"EPHEMERIS_TYPE":0,"CLASSIFICATION_TYPE":"U","NORAD_CAT_ID":37193,"ELEMENT_SET_NO":999,"REV_AT_EPOCH":71140,"BSTAR":6.5674016e-5,"MEAN_MOTION_DOT":-9.2e-7,"MEAN_MOTION_DDOT":0},{"OBJECT_NAME":"COSMOS 2216","OBJECT_ID":"1992-068F","EPOCH":"2026-03-09T23:22:26.472000","MEAN_MOTION":12.62583185,"ECCENTRICITY":0.00057009,"INCLINATION":82.5945,"RA_OF_ASC_NODE":47.0171,"ARG_OF_PERICENTER":15.3089,"MEAN_ANOMALY":344.8174,"EPHEMERIS_TYPE":0,"CLASSIFICATION_TYPE":"U","NORAD_CAT_ID":22187,"ELEMENT_SET_NO":999,"REV_AT_EPOCH":53837,"BSTAR":9.8884957e-5,"MEAN_MOTION_DOT":2.8e-7,"MEAN_MOTION_DDOT":0}]
